CCSDS_OMM_VERS = 2.0
CREATION_DATE  = 
ORIGINATOR     = 

OBJECT_NAME    = SL-16 R/B
OBJECT_ID      = 1993-016B
CENTER_NAME    = EARTH
REF_FRAME      = TEME
TIME_SYSTEM    = UTC
MEAN_ELEMENT_THEORY = SGP/SGP4

EPOCH          = 2026-02-18T23:30:52.005312
MEAN_MOTION    = 14.15300214
ECCENTRICITY   = .0010639
INCLINATION    = 71.0044
RA_OF_ASC_NODE = 254.4793
ARG_OF_PERICENTER = 339.6369
MEAN_ANOMALY   = 20.4328

EPHEMERIS_TYPE = 0
CLASSIFICATION_TYPE = U
NORAD_CAT_ID   = 22566
ELEMENT_SET_NO = 999
REV_AT_EPOCH   = 69952
BSTAR          = -.63676E-4
MEAN_MOTION_DOT = -.172E-5
MEAN_MOTION_DDOT = 0

CCSDS_OMM_VERS = 2.0
CREATION_DATE  = 
ORIGINATOR     = 

OBJECT_NAME    = COSMOS 2242
OBJECT_ID      = 1993-024A
CENTER_NAME    = EARTH
REF_FRAME      = TEME
TIME_SYSTEM    = UTC
MEAN_ELEMENT_THEORY = SGP/SGP4

EPOCH          = 2026-02-19T02:45:02.117376
MEAN_MOTION    = 14.96469323
ECCENTRICITY   = .0016758
INCLINATION    = 82.5175
RA_OF_ASC_NODE = 284.4852
ARG_OF_PERICENTER = 13.0651
MEAN_ANOMALY   = 347.1002

EPHEMERIS_TYPE = 0
CLASSIFICATION_TYPE = U
NORAD_CAT_ID   = 22626
ELEMENT_SET_NO = 999
REV_AT_EPOCH   = 77761
BSTAR          = .1485E-3
MEAN_MOTION_DOT = .1716E-4
MEAN_MOTION_DDOT = 0

CCSDS_OMM_VERS = 2.0
CREATION_DATE  = 
ORIGINATOR     = 

OBJECT_NAME    = SL-16 R/B
OBJECT_ID      = 1993-059B
CENTER_NAME    = EARTH
REF_FRAME      = TEME
TIME_SYSTEM    = UTC
MEAN_ELEMENT_THEORY = SGP/SGP4

EPOCH          = 2026-02-19T01:19:28.001280
MEAN_MOTION    = 14.17227392
ECCENTRICITY   = .0019271
INCLINATION    = 70.9893
RA_OF_ASC_NODE = 50.4227
ARG_OF_PERICENTER = 242.2108
MEAN_ANOMALY   = 117.7063

EPHEMERIS_TYPE = 0
CLASSIFICATION_TYPE = U
NORAD_CAT_ID   = 22803
ELEMENT_SET_NO = 999
REV_AT_EPOCH   = 67689
BSTAR          = -.25427E-4
MEAN_MOTION_DOT = -.1E-5
MEAN_MOTION_DDOT = 0

CCSDS_OMM_VERS = 2.0
CREATION_DATE  = 
ORIGINATOR     = 

OBJECT_NAME    = ARIANE 40 R/B
OBJECT_ID      = 1993-061H
CENTER_NAME    = EARTH
REF_FRAME      = TEME
TIME_SYSTEM    = UTC
MEAN_ELEMENT_THEORY = SGP/SGP4

EPOCH          = 2026-02-19T04:38:32.491104
MEAN_MOTION    = 14.32850486
ECCENTRICITY   = .0010161
INCLINATION    = 98.4957
RA_OF_ASC_NODE = 119.4425
ARG_OF_PERICENTER = 344.7393
MEAN_ANOMALY   = 15.3483

EPHEMERIS_TYPE = 0
CLASSIFICATION_TYPE = U
NORAD_CAT_ID   = 22830
ELEMENT_SET_NO = 999
REV_AT_EPOCH   = 69145
BSTAR          = .79232E-4
MEAN_MOTION_DOT = .173E-5
MEAN_MOTION_DDOT = 0

CCSDS_OMM_VERS = 2.0
CREATION_DATE  = 
ORIGINATOR     = 

OBJECT_NAME    = COSMOS 2278
OBJECT_ID      = 1994-023A
CENTER_NAME    = EARTH
REF_FRAME      = TEME
TIME_SYSTEM    = UTC
MEAN_ELEMENT_THEORY = SGP/SGP4

EPOCH          = 2026-02-18T20:32:27.642336
MEAN_MOTION    = 14.14365339
ECCENTRICITY   = .0007066
INCLINATION    = 71.0510
RA_OF_ASC_NODE = 214.4994
ARG_OF_PERICENTER = 50.7242
MEAN_ANOMALY   = 309.4507

EPHEMERIS_TYPE = 0
CLASSIFICATION_TYPE = U
NORAD_CAT_ID   = 23087
ELEMENT_SET_NO = 999
REV_AT_EPOCH   = 64214
BSTAR          = .13533E-3
MEAN_MOTION_DOT = .212E-5
MEAN_MOTION_DDOT = 0

CCSDS_OMM_VERS = 2.0
CREATION_DATE  = 
ORIGINATOR     = 

OBJECT_NAME    = SL-16 R/B
OBJECT_ID      = 1994-023B
CENTER_NAME    = EARTH
REF_FRAME      = TEME
TIME_SYSTEM    = UTC
MEAN_ELEMENT_THEORY = SGP/SGP4

EPOCH          = 2026-02-19T02:57:03.648096
MEAN_MOTION    = 14.15009221
ECCENTRICITY   = .0004852
INCLINATION    = 70.9992
RA_OF_ASC_NODE = 109.8820
ARG_OF_PERICENTER = 303.0184
MEAN_ANOMALY   = 57.0472

EPHEMERIS_TYPE = 0
CLASSIFICATION_TYPE = U
NORAD_CAT_ID   = 23088
ELEMENT_SET_NO = 999
REV_AT_EPOCH   = 64346
BSTAR          = .20073E-3
MEAN_MOTION_DOT = .341E-5
MEAN_MOTION_DDOT = 0

CCSDS_OMM_VERS = 2.0
CREATION_DATE  = 
ORIGINATOR     = 

OBJECT_NAME    = SL-16 R/B
OBJECT_ID      = 1994-074B
CENTER_NAME    = EARTH
REF_FRAME      = TEME
TIME_SYSTEM    = UTC
MEAN_ELEMENT_THEORY = SGP/SGP4

EPOCH          = 2026-02-19T01:14:53.816928
MEAN_MOTION    = 14.79384656
ECCENTRICITY   = .0005156
INCLINATION    = 97.7135
RA_OF_ASC_NODE = 81.6223
ARG_OF_PERICENTER = 285.4616
MEAN_ANOMALY   = 103.3066

EPHEMERIS_TYPE = 0
CLASSIFICATION_TYPE = U
NORAD_CAT_ID   = 23343
ELEMENT_SET_NO = 999
REV_AT_EPOCH   = 68449
BSTAR          = .64277E-4
MEAN_MOTION_DOT = .43E-5
MEAN_MOTION_DDOT = 0

CCSDS_OMM_VERS = 2.0
CREATION_DATE  = 
ORIGINATOR     = 

OBJECT_NAME    = SL-16 R/B
OBJECT_ID      = 1994-077B
CENTER_NAME    = EARTH
REF_FRAME      = TEME
TIME_SYSTEM    = UTC
MEAN_ELEMENT_THEORY = SGP/SGP4

EPOCH          = 2026-02-19T00:59:14.561664
MEAN_MOTION    = 14.15563215
ECCENTRICITY   = .0003908
INCLINATION    = 70.9835
RA_OF_ASC_NODE = 31.7202
ARG_OF_PERICENTER = 229.6661
MEAN_ANOMALY   = 130.4121

EPHEMERIS_TYPE = 0
CLASSIFICATION_TYPE = U
NORAD_CAT_ID   = 23405
ELEMENT_SET_NO = 999
REV_AT_EPOCH   = 61359
BSTAR          = .10852E-3
MEAN_MOTION_DOT = .164E-5
MEAN_MOTION_DDOT = 0

CCSDS_OMM_VERS = 2.0
CREATION_DATE  = 
ORIGINATOR     = 

OBJECT_NAME    = ARIANE 40+ R/B
OBJECT_ID      = 1995-021B
CENTER_NAME    = EARTH
REF_FRAME      = TEME
TIME_SYSTEM    = UTC
MEAN_ELEMENT_THEORY = SGP/SGP4

EPOCH          = 2026-02-19T04:26:11.890176
MEAN_MOTION    = 14.39757998
ECCENTRICITY   = .0006735
INCLINATION    = 98.4537
RA_OF_ASC_NODE = 121.9146
ARG_OF_PERICENTER = 188.1016
MEAN_ANOMALY   = 196.5795

EPHEMERIS_TYPE = 0
CLASSIFICATION_TYPE = U
NORAD_CAT_ID   = 23561
ELEMENT_SET_NO = 999
REV_AT_EPOCH   = 61658
BSTAR          = .94581E-4
MEAN_MOTION_DOT = .253E-5
MEAN_MOTION_DDOT = 0

CCSDS_OMM_VERS = 2.0
CREATION_DATE  = 
ORIGINATOR     = 

OBJECT_NAME    = SL-16 R/B
OBJECT_ID      = 1995-058B
CENTER_NAME    = EARTH
REF_FRAME      = TEME
TIME_SYSTEM    = UTC
MEAN_ELEMENT_THEORY = SGP/SGP4

EPOCH          = 2026-02-18T21:44:26.424096
MEAN_MOTION    = 14.15495744
ECCENTRICITY   = .0011488
INCLINATION    = 71.0200
RA_OF_ASC_NODE = 219.6895
ARG_OF_PERICENTER = 158.2055
MEAN_ANOMALY   = 201.9559

EPHEMERIS_TYPE = 0
CLASSIFICATION_TYPE = U
NORAD_CAT_ID   = 23705
ELEMENT_SET_NO = 999
REV_AT_EPOCH   = 56519
BSTAR          = -.44728E-4
MEAN_MOTION_DOT = -.135E-5
MEAN_MOTION_DDOT = 0

CCSDS_OMM_VERS = 2.0
CREATION_DATE  = 
ORIGINATOR     = 

OBJECT_NAME    = SL-16 R/B
OBJECT_ID      = 1996-051B
CENTER_NAME    = EARTH
REF_FRAME      = TEME
TIME_SYSTEM    = UTC
MEAN_ELEMENT_THEORY = SGP/SGP4

EPOCH          = 2026-02-18T21:39:43.577280
MEAN_MOTION    = 14.12410301
ECCENTRICITY   = .001679
INCLINATION    = 70.7574
RA_OF_ASC_NODE = 215.0027
ARG_OF_PERICENTER = 174.9333
MEAN_ANOMALY   = 185.1960

EPHEMERIS_TYPE = 0
CLASSIFICATION_TYPE = U
NORAD_CAT_ID   = 24298
ELEMENT_SET_NO = 999
REV_AT_EPOCH   = 51899
BSTAR          = .69014E-4
MEAN_MOTION_DOT = .78E-6
MEAN_MOTION_DDOT = 0

CCSDS_OMM_VERS = 2.0
CREATION_DATE  = 
ORIGINATOR     = 

OBJECT_NAME    = ORBVIEW 2 (SEASTAR)
OBJECT_ID      = 1997-037A
CENTER_NAME    = EARTH
REF_FRAME      = TEME
TIME_SYSTEM    = UTC
MEAN_ELEMENT_THEORY = SGP/SGP4

EPOCH          = 2026-02-19T00:23:40.661376
MEAN_MOTION    = 14.35479448
ECCENTRICITY   = .0003162
INCLINATION    = 98.8532
RA_OF_ASC_NODE = 213.8366
ARG_OF_PERICENTER = 109.6431
MEAN_ANOMALY   = 250.5095

EPHEMERIS_TYPE = 0
CLASSIFICATION_TYPE = U
NORAD_CAT_ID   = 24883
ELEMENT_SET_NO = 999
REV_AT_EPOCH   = 50579
BSTAR          = .9793E-4
MEAN_MOTION_DOT = .235E-5
MEAN_MOTION_DDOT = 0

