SL-16 R/B               
1 22566U 93016B   26049.97976858 -.00000172  00000+0 -63676-4 0  9993
2 22566  71.0044 254.4793 0010639 339.6369  20.4328 14.15300214699522
COSMOS 2242             
1 22626U 93024A   26050.11460784  .00001716  00000+0  14850-3 0  9995
2 22626  82.5175 284.4852 0016758  13.0651 347.1002 14.96469323777616
SL-16 R/B               
1 22803U 93059B   26050.05518520 -.00000100  00000+0 -25427-4 0  9996
2 22803  70.9893  50.4227 0019271 242.2108 117.7063 14.17227392676891
ARIANE 40 R/B           
1 22830U 93061H   26050.19343161  .00000173  00000+0  79232-4 0  9992
2 22830  98.4957 119.4425 0010161 344.7393  15.3483 14.32850486691457
COSMOS 2278             
1 23087U 94023A   26049.85587549  .00000212  00000+0  13533-3 0  9992
2 23087  71.0510 214.4994 0007066  50.7242 309.4507 14.14365339642142
SL-16 R/B               
1 23088U 94023B   26050.12295889  .00000341  00000+0  20073-3 0  9998
2 23088  70.9992 109.8820 0004852 303.0184  57.0472 14.15009221643468
SL-16 R/B               
1 23343U 94074B   26050.05201177  .00000430  00000+0  64277-4 0  9991
2 23343  97.7135  81.6223 0005156 285.4616 103.3066 14.79384656684493
SL-16 R/B               
1 23405U 94077B   26050.04114076  .00000164  00000+0  10852-3 0  9996
2 23405  70.9835  31.7202 0003908 229.6661 130.4121 14.15563215613594
ARIANE 40+ R/B          
1 23561U 95021B   26050.18485984  .00000253  00000+0  94581-4 0  9994
2 23561  98.4537 121.9146 0006735 188.1016 196.5795 14.39757998616585
SL-16 R/B               
1 23705U 95058B   26049.90586139 -.00000135  00000+0 -44728-4 0  9995
2 23705  71.0200 219.6895 0011488 158.2055 201.9559 14.15495744565198
SL-16 R/B               
1 24298U 96051B   26049.90258770  .00000078  00000+0  69014-4 0  9993
2 24298  70.7574 215.0027 0016790 174.9333 185.1960 14.12410301518996
ORBVIEW 2 (SEASTAR)     
1 24883U 97037A   26050.01644284  .00000235  00000+0  97930-4 0  9994
2 24883  98.8532 213.8366 0003162 109.6431 250.5095 14.35479448505798
